ZY-1 02D                
1 44528U 19059A   23150.51697145  .00000139  00000+0  63533-4 0  9992
2 44528  98.4477 226.6897 0001155 112.0395 248.0913 14.35385692194576
BNU-1 (JINGSHI 1)       
1 44529U 19059B   23150.56802531  .00000506  00000+0  15489-3 0  9999
2 44529  98.5220 252.0025 0014616 138.2729 221.9580 14.45829853195920
TAURUS-1 (JINNIUZUO 1)  
1 44530U 19059C   23150.61744886  .00003790  00000+0  98998-3 0  9999
2 44530  98.5532 258.1501 0014421 144.0659 216.1507 14.49952942196099
SEEKER                  
1 44533U 19022K   23150.42790293  .00036367  00000+0  52453-3 0  9996
2 44533  51.6289 207.5792 0007189 265.5831  94.4339 15.55604113207674
ZHUHAI-1 03A            
1 44534U 19060A   23150.58404661  .00018513  00000+0  57171-3 0  9992
2 44534  97.4765 265.2566 0012310 271.0337  88.9495 15.33523926205067
ZHUHAI-1 03B            
1 44536U 19060C   23150.57970632  .00017867  00000+0  55351-3 0  9998
2 44536  97.4795 265.5031 0008597 263.4245  96.6018 15.33470477205077
ZHUHAI-1 03C            
1 44537U 19060D   23150.56593949  .00017791  00000+0  54971-3 0  9993
2 44537  97.4703 264.2704 0007120 286.1721  73.8738 15.33565989205071
ZHUHAI-1 03D            
1 44538U 19060E   23150.55475136  .00017488  00000+0  54136-3 0  9996
2 44538  97.4669 263.8204 0006508 279.5571  80.4936 15.33512620205079
ZHUHAI-1 03E            
1 44539U 19060F   23150.60474237  .00018021  00000+0  55809-3 0  9996
2 44539  97.4813 265.8495 0006724 304.6868  55.3740 15.33493549205087
BEIDOU-3 M24            
1 44542U 19061A   23150.06538019  .00000032  00000+0  00000+0 0  9992
2 44542  54.5007 220.3543 0007389 338.8285  21.2116  1.86231278 25047
BEIDOU-3 M23            
1 44543U 19061B   23149.17710760  .00000020  00000+0  00000+0 0  9995
2 44543  54.4993 220.3539 0004917 320.1801  76.0732  1.86231765 25030
YUNHAI 1-02             
1 44547U 19063A   23150.56660796  .00000304  00000+0  12711-3 0  9990
2 44547  98.4702 173.7397 0000780 180.6120 179.5063 14.32932984192385
COSMOS 2541             
1 44552U 19065A   23150.17948256 -.00000792  00000+0  00000+0 0  9991
2 44552  62.9698 265.8243 6814228 271.7929  17.8386  2.00606692 26877
GAOFEN 10R              
1 44622U 19066A   23150.54162344  .00001322  00000+0  17581-3 0  9992
2 44622  97.9281  90.1903 0000896 322.8972  37.2178 14.81395455197385
EUTELSAT 5 WEST B       
1 44624U 19067A   23150.36869794 -.00000025  00000+0  00000+0 0  9992
2 44624   0.0683  15.6829 0004356  79.6328 280.0432  1.00271474 13271
MEV-1                   
1 44625U 19067B   23150.43035918 -.00000184  00000+0  00000+0 0  9990
2 44625   0.0375 105.0190 0000902 333.6029 296.5158  1.00270595 11817
PALISADE                
1 44634U 19069A   23150.43360897  .00000431  00000+0  11730-2 0  9998
2 44634  87.8920 141.3254 0009628 165.6538 194.4865 13.11849535173082
