[{"OBJECT_NAME":"ZY-1 02D","OBJECT_ID":"2019-059A","EPOCH":"2023-05-30T12:24:26.333280","MEAN_MOTION":14.35385692,"ECCENTRICITY":0.0001155,"INCLINATION":98.4477,"RA_OF_ASC_NODE":226.6897,"ARG_OF_PERICENTER":112.0395,"MEAN_ANOMALY":248.0913,"EPHEMERIS_TYPE":0,"CLASSIFICATION_TYPE":"U","NORAD_CAT_ID":44528,"ELEMENT_SET_NO":999,"REV_AT_EPOCH":19457,"BSTAR":6.3533e-5,"MEAN_MOTION_DOT":1.39e-6,"MEAN_MOTION_DDOT":0},{"OBJECT_NAME":"BNU-1 (JINGSHI 1)","OBJECT_ID":"2019-059B","EPOCH":"2023-05-30T13:37:57.386784","MEAN_MOTION":14.45829853,"ECCENTRICITY":0.0014616,"INCLINATION":98.522,"RA_OF_ASC_NODE":252.0025,"ARG_OF_PERICENTER":138.2729,"MEAN_ANOMALY":221.958,"EPHEMERIS_TYPE":0,"CLASSIFICATION_TYPE":"U","NORAD_CAT_ID":44529,"ELEMENT_SET_NO":999,"REV_AT_EPOCH":19592,"BSTAR":0.00015489,"MEAN_MOTION_DOT":5.06e-6,"MEAN_MOTION_DDOT":0},{"OBJECT_NAME":"TAURUS-1 (JINNIUZUO 1)","OBJECT_ID":"2019-059C","EPOCH":"2023-05-30T14:49:07.581504","MEAN_MOTION":14.49952942,"ECCENTRICITY":0.0014421,"INCLINATION":98.5532,"RA_OF_ASC_NODE":258.1501,"ARG_OF_PERICENTER":144.0659,"MEAN_ANOMALY":216.1507,"EPHEMERIS_TYPE":0,"CLASSIFICATION_TYPE":"U","NORAD_CAT_ID":44530,"ELEMENT_SET_NO":999,"REV_AT_EPOCH":19609,"BSTAR":0.00098998,"MEAN_MOTION_DOT":3.79e-5,"MEAN_MOTION_DDOT":0},{"OBJECT_NAME":"SEEKER","OBJECT_ID":"2019-022K","EPOCH":"2023-05-30T10:16:10.813152","MEAN_MOTION":15.55604113,"ECCENTRICITY":0.0007189,"INCLINATION":51.6289,"RA_OF_ASC_NODE":207.5792,"ARG_OF_PERICENTER":265.5831,"MEAN_ANOMALY":94.4339,"EPHEMERIS_TYPE":0,"CLASSIFICATION_TYPE":"U","NORAD_CAT_ID":44533,"ELEMENT_SET_NO":999,"REV_AT_EPOCH":20767,"BSTAR":0.00052453,"MEAN_MOTION_DOT":0.00036367,"MEAN_MOTION_DDOT":0},{"OBJECT_NAME":"ZHUHAI-1 03A","OBJECT_ID":"2019-060A","EPOCH":"2023-05-30T14:01:01.627104","MEAN_MOTION":15.33523926,"ECCENTRICITY":0.001231,"INCLINATION":97.4765,"RA_OF_ASC_NODE":265.2566,"ARG_OF_PERICENTER":271.0337,"MEAN_ANOMALY":88.9495,"EPHEMERIS_TYPE":0,"CLASSIFICATION_TYPE":"U","NORAD_CAT_ID":44534,"ELEMENT_SET_NO":999,"REV_AT_EPOCH":20506,"BSTAR":0.00057171,"MEAN_MOTION_DOT":0.00018513,"MEAN_MOTION_DDOT":0},{"OBJECT_NAME":"ZHUHAI-1 03B","OBJECT_ID":"2019-060C","EPOCH":"2023-05-30T13:54:46.626048","MEAN_MOTION":15.33470477,"ECCENTRICITY":0.0008597,"INCLINATION":97.4795,"RA_OF_ASC_NODE":265.5031,"ARG_OF_PERICENTER":263.4245,"MEAN_ANOMALY":96.6018,"EPHEMERIS_TYPE":0,"CLASSIFICATION_TYPE":"U","NORAD_CAT_ID":44536,"ELEMENT_SET_NO":999,"REV_AT_EPOCH":20507,"BSTAR":0.00055351,"MEAN_MOTION_DOT":0.00017867,"MEAN_MOTION_DDOT":0},{"OBJECT_NAME":"ZHUHAI-1 03C","OBJECT_ID":"2019-060D","EPOCH":"2023-05-30T13:34:57.171936","MEAN_MOTION":15.33565989,"ECCENTRICITY":0.000712,"INCLINATION":97.4703,"RA_OF_ASC_NODE":264.2704,"ARG_OF_PERICENTER":286.1721,"MEAN_ANOMALY":73.8738,"EPHEMERIS_TYPE":0,"CLASSIFICATION_TYPE":"U","NORAD_CAT_ID":44537,"ELEMENT_SET_NO":999,"REV_AT_EPOCH":20507,"BSTAR":0.00054971,"MEAN_MOTION_DOT":0.00017791,"MEAN_MOTION_DDOT":0},{"OBJECT_NAME":"ZHUHAI-1 03D","OBJECT_ID":"2019-060E","EPOCH":"2023-05-30T13:18:50.517504","MEAN_MOTION":15.3351262,"ECCENTRICITY":0.0006508,"INCLINATION":97.4669,"RA_OF_ASC_NODE":263.8204,"ARG_OF_PERICENTER":279.5571,"MEAN_ANOMALY":80.4936,"EPHEMERIS_TYPE":0,"CLASSIFICATION_TYPE":"U","NORAD_CAT_ID":44538,"ELEMENT_SET_NO":999,"REV_AT_EPOCH":20507,"BSTAR":0.00054136,"MEAN_MOTION_DOT":0.00017488,"MEAN_MOTION_DDOT":0},{"OBJECT_NAME":"ZHUHAI-1 03E","OBJECT_ID":"2019-060F","EPOCH":"2023-05-30T14:30:49.740768","MEAN_MOTION":15.33493549,"ECCENTRICITY":0.0006724,"INCLINATION":97.4813,"RA_OF_ASC_NODE":265.8495,"ARG_OF_PERICENTER":304.6868,"MEAN_ANOMALY":55.374,"EPHEMERIS_TYPE":0,"CLASSIFICATION_TYPE":"U","NORAD_CAT_ID":44539,"ELEMENT_SET_NO":999,"REV_AT_EPOCH":20508,"BSTAR":0.00055809,"MEAN_MOTION_DOT":0.00018021,"MEAN_MOTION_DDOT":0},{"OBJECT_NAME":"BEIDOU-3 M24","OBJECT_ID":"2019-061A","EPOCH":"2023-05-30T01:34:08.848416","MEAN_MOTION":1.86231278,"ECCENTRICITY":0.0007389,"INCLINATION":54.5007,"RA_OF_ASC_NODE":220.3543,"ARG_OF_PERICENTER":338.8285,"MEAN_ANOMALY":21.2116,"EPHEMERIS_TYPE":0,"CLASSIFICATION_TYPE":"U","NORAD_CAT_ID":44542,"ELEMENT_SET_NO":999,"REV_AT_EPOCH":2504,"BSTAR":0,"MEAN_MOTION_DOT":3.2e-7,"MEAN_MOTION_DDOT":0},{"OBJECT_NAME":"BEIDOU-3 M23","OBJECT_ID":"2019-061B","EPOCH":"2023-05-29T04:15:02.096640","MEAN_MOTION":1.86231765,"ECCENTRICITY":0.0004917,"INCLINATION":54.4993,"RA_OF_ASC_NODE":220.3539,"ARG_OF_PERICENTER":320.1801,"MEAN_ANOMALY":76.0732,"EPHEMERIS_TYPE":0,"CLASSIFICATION_TYPE":"U","NORAD_CAT_ID":44543,"ELEMENT_SET_NO":999,"REV_AT_EPOCH":2503,"BSTAR":0,"MEAN_MOTION_DOT":2.0e-7,"MEAN_MOTION_DDOT":0},{"OBJECT_NAME":"YUNHAI 1-02","OBJECT_ID":"2019-063A","EPOCH":"2023-05-30T13:35:54.927744","MEAN_MOTION":14.32932984,"ECCENTRICITY":7.8e-5,"INCLINATION":98.4702,"RA_OF_ASC_NODE":173.7397,"ARG_OF_PERICENTER":180.612,"MEAN_ANOMALY":179.5063,"EPHEMERIS_TYPE":0,"CLASSIFICATION_TYPE":"U","NORAD_CAT_ID":44547,"ELEMENT_SET_NO":999,"REV_AT_EPOCH":19238,"BSTAR":0.00012711,"MEAN_MOTION_DOT":3.04e-6,"MEAN_MOTION_DDOT":0},{"OBJECT_NAME":"COSMOS 2541","OBJECT_ID":"2019-065A","EPOCH":"2023-05-30T04:18:27.293184","MEAN_MOTION":2.00606692,"ECCENTRICITY":0.6814228,"INCLINATION":62.9698,"RA_OF_ASC_NODE":265.8243,"ARG_OF_PERICENTER":271.7929,"MEAN_ANOMALY":17.8386,"EPHEMERIS_TYPE":0,"CLASSIFICATION_TYPE":"U","NORAD_CAT_ID":44552,"ELEMENT_SET_NO":999,"REV_AT_EPOCH":2687,"BSTAR":0,"MEAN_MOTION_DOT":-7.92e-6,"MEAN_MOTION_DDOT":0},{"OBJECT_NAME":"GAOFEN 10R","OBJECT_ID":"2019-066A","EPOCH":"2023-05-30T12:59:56.265216","MEAN_MOTION":14.81395455,"ECCENTRICITY":8.96e-5,"INCLINATION":97.9281,"RA_OF_ASC_NODE":90.1903,"ARG_OF_PERICENTER":322.8972,"MEAN_ANOMALY":37.2178,"EPHEMERIS_TYPE":0,"CLASSIFICATION_TYPE":"U","NORAD_CAT_ID":44622,"ELEMENT_SET_NO":999,"REV_AT_EPOCH":19738,"BSTAR":0.00017581,"MEAN_MOTION_DOT":1.322e-5,"MEAN_MOTION_DDOT":0},{"OBJECT_NAME":"EUTELSAT 5 WEST B","OBJECT_ID":"2019-067A","EPOCH":"2023-05-30T08:50:55.502016","MEAN_MOTION":1.00271474,"ECCENTRICITY":0.0004356,"INCLINATION":0.0683,"RA_OF_ASC_NODE":15.6829,"ARG_OF_PERICENTER":79.6328,"MEAN_ANOMALY":280.0432,"EPHEMERIS_TYPE":0,"CLASSIFICATION_TYPE":"U","NORAD_CAT_ID":44624,"ELEMENT_SET_NO":999,"REV_AT_EPOCH":1327,"BSTAR":0,"MEAN_MOTION_DOT":-2.5e-7,"MEAN_MOTION_DDOT":0},{"OBJECT_NAME":"MEV-1","OBJECT_ID":"2019-067B","EPOCH":"2023-05-30T10:19:43.033152","MEAN_MOTION":1.00270595,"ECCENTRICITY":9.02e-5,"INCLINATION":0.0375,"RA_OF_ASC_NODE":105.019,"ARG_OF_PERICENTER":333.6029,"MEAN_ANOMALY":296.5158,"EPHEMERIS_TYPE":0,"CLASSIFICATION_TYPE":"U","NORAD_CAT_ID":44625,"ELEMENT_SET_NO":999,"REV_AT_EPOCH":1181,"BSTAR":0,"MEAN_MOTION_DOT":-1.84e-6,"MEAN_MOTION_DDOT":0},{"OBJECT_NAME":"PALISADE","OBJECT_ID":"2019-069A","EPOCH":"2023-05-30T10:24:23.815008","MEAN_MOTION":13.11849535,"ECCENTRICITY":0.0009628,"INCLINATION":87.892,"RA_OF_ASC_NODE":141.3254,"ARG_OF_PERICENTER":165.6538,"MEAN_ANOMALY":194.4865,"EPHEMERIS_TYPE":0,"CLASSIFICATION_TYPE":"U","NORAD_CAT_ID":44634,"ELEMENT_SET_NO":999,"REV_AT_EPOCH":17308,"BSTAR":0.001173,"MEAN_MOTION_DOT":4.31e-6,"MEAN_MOTION_DDOT":0}]
